QIANFAN-81              
1 63167U 25046J   25206.50748777  .00000108  00000+0  14826-3 0  9992
2 63167  88.9854 334.3169 0015683 159.9713 200.2056 13.50958165 28552
QIANFAN-82              
1 63168U 25046K   25206.46620107  .00000125  00000+0  17466-3 0  9996
2 63168  88.9854 334.3647 0013597 166.6320 193.5194 13.50959648 28537
QIANFAN-83              
1 63169U 25046L   25206.44844637  .00000161  00000+0  19256-3 0  9990
2 63169  88.9854 334.4174 0015064 160.4690 199.7047 13.61928184 28502
QIANFAN-84              
1 63170U 25046M   25206.49508368  .00000185  00000+0  26802-3 0  9996
2 63170  88.9853 334.4948 0016658 164.5500 195.6163 13.50960380 28468
QIANFAN-85              
1 63171U 25046N   25206.49099372  .00000109  00000+0  15015-3 0  9997
2 63171  88.9853 334.3676 0013971 165.7523 194.4025 13.50955957 28535
QIANFAN-86              
1 63172U 25046P   25206.49922540  .00000123  00000+0  17173-3 0  9993
2 63172  88.9856 334.2256 0011748 168.4231 191.7193 13.50956219 28615
QIANFAN-87              
1 63173U 25046Q   25206.54436451 -.00000069  00000+0 -12611-3 0  9994
2 63173  88.9848 334.3382 0012572 164.3318 195.8224 13.50954004 28558
QIANFAN-88              
1 63174U 25046R   25206.48696749  .00000110  00000+0  15185-3 0  9990
2 63174  88.9854 334.2949 0012732 171.9872 188.1485 13.50956411 28571
